[{"OBJECT_NAME":"TRANSPORTER-15 OBJECT AA","OBJECT_ID":"2025-276AA","EPOCH":"2026-03-09T17:09:28.865952","MEAN_MOTION":15.18098016,"ECCENTRICITY":0.00045616,"INCLINATION":97.4256,"RA_OF_ASC_NODE":143.8764,"ARG_OF_PERICENTER":6.1284,"MEAN_ANOMALY":354.0005,"EPHEMERIS_TYPE":0,"CLASSIFICATION_TYPE":"U","NORAD_CAT_ID":66690,"ELEMENT_SET_NO":999,"REV_AT_EPOCH":1531,"BSTAR":0.00028455511,"MEAN_MOTION_DOT":5.737e-5,"MEAN_MOTION_DDOT":0},{"OBJECT_NAME":"CZ-4C DEB","OBJECT_ID":"2015-069E","EPOCH":"2026-03-08T09:26:17.543040","MEAN_MOTION":15.0129982,"ECCENTRICITY":0.00755181,"INCLINATION":98.2766,"RA_OF_ASC_NODE":51.2744,"ARG_OF_PERICENTER":283.3594,"MEAN_ANOMALY":75.9217,"EPHEMERIS_TYPE":0,"CLASSIFICATION_TYPE":"U","NORAD_CAT_ID":42672,"ELEMENT_SET_NO":999,"REV_AT_EPOCH":54397,"BSTAR":0.0018440127,"MEAN_MOTION_DOT":0.00025217,"MEAN_MOTION_DDOT":0}]
